CCSDS_OMM_VERS = 2.0
CREATION_DATE  = 
ORIGINATOR     = 

OBJECT_NAME    = COSMOS 2228
OBJECT_ID      = 1992-094A
CENTER_NAME    = EARTH
REF_FRAME      = TEME
TIME_SYSTEM    = UTC
MEAN_ELEMENT_THEORY = SGP/SGP4

EPOCH          = 2025-11-27T23:33:52.252128
MEAN_MOTION    = 14.96624942
ECCENTRICITY   = .00163709
INCLINATION    = 82.5177
RA_OF_ASC_NODE = 334.6560
ARG_OF_PERICENTER = 286.0572
MEAN_ANOMALY   = 73.8847

EPHEMERIS_TYPE = 0
CLASSIFICATION_TYPE = U
NORAD_CAT_ID   = 22286
ELEMENT_SET_NO = 999
REV_AT_EPOCH   = 76084
BSTAR          = .22400948E-3
MEAN_MOTION_DOT = .2584E-4
MEAN_MOTION_DDOT = 0

CCSDS_OMM_VERS = 2.0
CREATION_DATE  = 
ORIGINATOR     = 

OBJECT_NAME    = SL-16 R/B
OBJECT_ID      = 1993-016B
CENTER_NAME    = EARTH
REF_FRAME      = TEME
TIME_SYSTEM    = UTC
MEAN_ELEMENT_THEORY = SGP/SGP4

EPOCH          = 2025-11-27T17:18:48.389760
MEAN_MOTION    = 14.15289131
ECCENTRICITY   = .00081108
INCLINATION    = 71.0091
RA_OF_ASC_NODE = 69.3446
ARG_OF_PERICENTER = 126.0015
MEAN_ANOMALY   = 234.1860

EPHEMERIS_TYPE = 0
CLASSIFICATION_TYPE = U
NORAD_CAT_ID   = 22566
ELEMENT_SET_NO = 999
REV_AT_EPOCH   = 68774
BSTAR          = .17339536E-4
MEAN_MOTION_DOT = -.14E-6
MEAN_MOTION_DDOT = 0

CCSDS_OMM_VERS = 2.0
CREATION_DATE  = 
ORIGINATOR     = 

OBJECT_NAME    = COSMOS 2242
OBJECT_ID      = 1993-024A
CENTER_NAME    = EARTH
REF_FRAME      = TEME
TIME_SYSTEM    = UTC
MEAN_ELEMENT_THEORY = SGP/SGP4

EPOCH          = 2025-11-27T14:05:01.462272
MEAN_MOTION    = 14.96012807
ECCENTRICITY   = .00148587
INCLINATION    = 82.5200
RA_OF_ASC_NODE = 4.3277
ARG_OF_PERICENTER = 290.4785
MEAN_ANOMALY   = 69.4842

EPHEMERIS_TYPE = 0
CLASSIFICATION_TYPE = U
NORAD_CAT_ID   = 22626
ELEMENT_SET_NO = 999
REV_AT_EPOCH   = 76512
BSTAR          = .21670374E-3
MEAN_MOTION_DOT = .2461E-4
MEAN_MOTION_DDOT = 0

CCSDS_OMM_VERS = 2.0
CREATION_DATE  = 
ORIGINATOR     = 

OBJECT_NAME    = SL-16 R/B
OBJECT_ID      = 1993-059B
CENTER_NAME    = EARTH
REF_FRAME      = TEME
TIME_SYSTEM    = UTC
MEAN_ELEMENT_THEORY = SGP/SGP4

EPOCH          = 2025-11-27T23:31:51.872736
MEAN_MOTION    = 14.17208018
ECCENTRICITY   = .00170803
INCLINATION    = 70.9896
RA_OF_ASC_NODE = 225.6081
ARG_OF_PERICENTER = 357.5139
MEAN_ANOMALY   = 2.5897

EPHEMERIS_TYPE = 0
CLASSIFICATION_TYPE = U
NORAD_CAT_ID   = 22803
ELEMENT_SET_NO = 999
REV_AT_EPOCH   = 66512
BSTAR          = .12965457E-4
MEAN_MOTION_DOT = -.22E-6
MEAN_MOTION_DDOT = 0

CCSDS_OMM_VERS = 2.0
CREATION_DATE  = 
ORIGINATOR     = 

OBJECT_NAME    = ARIANE 40 R/B
OBJECT_ID      = 1993-061H
CENTER_NAME    = EARTH
REF_FRAME      = TEME
TIME_SYSTEM    = UTC
MEAN_ELEMENT_THEORY = SGP/SGP4

EPOCH          = 2025-11-27T22:52:32.852928
MEAN_MOTION    = 14.32786626
ECCENTRICITY   = .00100517
INCLINATION    = 98.5094
RA_OF_ASC_NODE = 37.7510
ARG_OF_PERICENTER = 220.6075
MEAN_ANOMALY   = 139.4360

EPHEMERIS_TYPE = 0
CLASSIFICATION_TYPE = U
NORAD_CAT_ID   = 22830
ELEMENT_SET_NO = 999
REV_AT_EPOCH   = 67953
BSTAR          = .11930423E-3
MEAN_MOTION_DOT = .282E-5
MEAN_MOTION_DDOT = 0

CCSDS_OMM_VERS = 2.0
CREATION_DATE  = 
ORIGINATOR     = 

OBJECT_NAME    = COSMOS 2278
OBJECT_ID      = 1994-023A
CENTER_NAME    = EARTH
REF_FRAME      = TEME
TIME_SYSTEM    = UTC
MEAN_ELEMENT_THEORY = SGP/SGP4

EPOCH          = 2025-11-27T21:29:58.181856
MEAN_MOTION    = 14.14349931
ECCENTRICITY   = .00091823
INCLINATION    = 71.0559
RA_OF_ASC_NODE = 28.0664
ARG_OF_PERICENTER = 200.4144
MEAN_ANOMALY   = 159.6613

EPHEMERIS_TYPE = 0
CLASSIFICATION_TYPE = U
NORAD_CAT_ID   = 23087
ELEMENT_SET_NO = 999
REV_AT_EPOCH   = 63041
BSTAR          = .81653384E-4
MEAN_MOTION_DOT = .109E-5
MEAN_MOTION_DDOT = 0

CCSDS_OMM_VERS = 2.0
CREATION_DATE  = 
ORIGINATOR     = 

OBJECT_NAME    = SL-16 R/B
OBJECT_ID      = 1994-023B
CENTER_NAME    = EARTH
REF_FRAME      = TEME
TIME_SYSTEM    = UTC
MEAN_ELEMENT_THEORY = SGP/SGP4

EPOCH          = 2025-11-27T22:02:02.353920
MEAN_MOTION    = 14.14993578
ECCENTRICITY   = .00010991
INCLINATION    = 70.9995
RA_OF_ASC_NODE = 284.6111
ARG_OF_PERICENTER = 102.4281
MEAN_ANOMALY   = 257.6964

EPHEMERIS_TYPE = 0
CLASSIFICATION_TYPE = U
NORAD_CAT_ID   = 23088
ELEMENT_SET_NO = 999
REV_AT_EPOCH   = 63169
BSTAR          = .17151239E-3
MEAN_MOTION_DOT = .284E-5
MEAN_MOTION_DDOT = 0

CCSDS_OMM_VERS = 2.0
CREATION_DATE  = 
ORIGINATOR     = 

OBJECT_NAME    = SL-16 R/B
OBJECT_ID      = 1994-074B
CENTER_NAME    = EARTH
REF_FRAME      = TEME
TIME_SYSTEM    = UTC
MEAN_ELEMENT_THEORY = SGP/SGP4

EPOCH          = 2025-11-27T21:10:31.010304
MEAN_MOTION    = 14.79263522
ECCENTRICITY   = .00064315
INCLINATION    = 97.7220
RA_OF_ASC_NODE = 1.7764
ARG_OF_PERICENTER = 180.3843
MEAN_ANOMALY   = 352.7512

EPHEMERIS_TYPE = 0
CLASSIFICATION_TYPE = U
NORAD_CAT_ID   = 23343
ELEMENT_SET_NO = 999
REV_AT_EPOCH   = 67219
BSTAR          = .82556185E-4
MEAN_MOTION_DOT = .564E-5
MEAN_MOTION_DDOT = 0

CCSDS_OMM_VERS = 2.0
CREATION_DATE  = 
ORIGINATOR     = 

OBJECT_NAME    = SL-16 R/B
OBJECT_ID      = 1994-077B
CENTER_NAME    = EARTH
REF_FRAME      = TEME
TIME_SYSTEM    = UTC
MEAN_ELEMENT_THEORY = SGP/SGP4

EPOCH          = 2025-11-28T00:14:24.798336
MEAN_MOTION    = 14.15546512
ECCENTRICITY   = .00045697
INCLINATION    = 70.9816
RA_OF_ASC_NODE = 206.4005
ARG_OF_PERICENTER = 295.9410
MEAN_ANOMALY   = 64.1242

EPHEMERIS_TYPE = 0
CLASSIFICATION_TYPE = U
NORAD_CAT_ID   = 23405
ELEMENT_SET_NO = 999
REV_AT_EPOCH   = 60184
BSTAR          = -.9984163E-4
MEAN_MOTION_DOT = -.243E-5
MEAN_MOTION_DDOT = 0

CCSDS_OMM_VERS = 2.0
CREATION_DATE  = 
ORIGINATOR     = 

OBJECT_NAME    = ARIANE 40+ R/B
OBJECT_ID      = 1995-021B
CENTER_NAME    = EARTH
REF_FRAME      = TEME
TIME_SYSTEM    = UTC
MEAN_ELEMENT_THEORY = SGP/SGP4

EPOCH          = 2025-11-27T19:17:22.839648
MEAN_MOTION    = 14.39677733
ECCENTRICITY   = .00079197
INCLINATION    = 98.4668
RA_OF_ASC_NODE = 39.5718
ARG_OF_PERICENTER = 89.0447
MEAN_ANOMALY   = 21.8011

EPHEMERIS_TYPE = 0
CLASSIFICATION_TYPE = U
NORAD_CAT_ID   = 23561
ELEMENT_SET_NO = 999
REV_AT_EPOCH   = 60458
BSTAR          = .12839168E-3
MEAN_MOTION_DOT = .358E-5
MEAN_MOTION_DDOT = 0

CCSDS_OMM_VERS = 2.0
CREATION_DATE  = 
ORIGINATOR     = 

OBJECT_NAME    = SL-16 R/B
OBJECT_ID      = 1995-058B
CENTER_NAME    = EARTH
REF_FRAME      = TEME
TIME_SYSTEM    = UTC
MEAN_ELEMENT_THEORY = SGP/SGP4

EPOCH          = 2025-11-27T14:06:40.268448
MEAN_MOTION    = 14.15475028
ECCENTRICITY   = .00149158
INCLINATION    = 71.0225
RA_OF_ASC_NODE = 34.6159
ARG_OF_PERICENTER = 274.3474
MEAN_ANOMALY   = 85.5945

EPHEMERIS_TYPE = 0
CLASSIFICATION_TYPE = U
NORAD_CAT_ID   = 23705
ELEMENT_SET_NO = 999
REV_AT_EPOCH   = 55340
BSTAR          = .73878036E-4
MEAN_MOTION_DOT = .97E-6
MEAN_MOTION_DDOT = 0

CCSDS_OMM_VERS = 2.0
CREATION_DATE  = 
ORIGINATOR     = 

OBJECT_NAME    = SL-16 R/B
OBJECT_ID      = 1996-051B
CENTER_NAME    = EARTH
REF_FRAME      = TEME
TIME_SYSTEM    = UTC
MEAN_ELEMENT_THEORY = SGP/SGP4

EPOCH          = 2025-11-27T21:34:54.961536
MEAN_MOTION    = 14.12394369
ECCENTRICITY   = .0018942
INCLINATION    = 70.7608
RA_OF_ASC_NODE = 30.6967
ARG_OF_PERICENTER = 279.7795
MEAN_ANOMALY   = 80.1186

EPHEMERIS_TYPE = 0
CLASSIFICATION_TYPE = U
NORAD_CAT_ID   = 24298
ELEMENT_SET_NO = 999
REV_AT_EPOCH   = 50727
BSTAR          = .15167207E-4
MEAN_MOTION_DOT = -.21E-6
MEAN_MOTION_DDOT = 0

