COSMOS 2228             
1 22286U 92094A   25331.98185477  .00002584  00000+0  22401-3 0  9997
2 22286  82.5177 334.6560 0016370 286.0572  73.8847 14.96624942760845
SL-16 R/B               
1 22566U 93016B   25331.72139340 -.00000014  00000+0  17340-4 0  9997
2 22566  71.0091  69.3446 0008110 126.0015 234.1860 14.15289131687749
COSMOS 2242             
1 22626U 93024A   25331.58682248  .00002461  00000+0  21670-3 0  9994
2 22626  82.5200   4.3277 0014858 290.4785  69.4842 14.96012807765123
SL-16 R/B               
1 22803U 93059B   25331.98046149 -.00000022  00000+0  12965-4 0  9997
2 22803  70.9896 225.6081 0017080 357.5139   2.5897 14.17208018665122
ARIANE 40 R/B           
1 22830U 93061H   25331.95315802  .00000282  00000+0  11930-3 0  9999
2 22830  98.5094  37.7510 0010051 220.6075 139.4360 14.32786626679535
COSMOS 2278             
1 23087U 94023A   25331.89581229  .00000109  00000+0  81653-4 0  9992
2 23087  71.0559  28.0664 0009182 200.4144 159.6613 14.14349931630414
SL-16 R/B               
1 23088U 94023B   25331.91808280  .00000284  00000+0  17151-3 0  9990
2 23088  70.9995 284.6111 0001099 102.4281 257.6964 14.14993578631697
SL-16 R/B               
1 23343U 94074B   25331.88230336  .00000564  00000+0  82556-4 0  9990
2 23343  97.7220   1.7764 0006431 180.3843 352.7512 14.79263522672191
SL-16 R/B               
1 23405U 94077B   25332.01000924 -.00000243  00000+0 -99842-4 0  9998
2 23405  70.9816 206.4005 0004569 295.9410  64.1242 14.15546512601840
ARIANE 40+ R/B          
1 23561U 95021B   25331.80373657  .00000358  00000+0  12839-3 0  9998
2 23561  98.4668  39.5718 0007919  89.0447  21.8011 14.39677733604587
SL-16 R/B               
1 23705U 95058B   25331.58796607  .00000097  00000+0  73878-4 0  9998
2 23705  71.0225  34.6159 0014915 274.3474  85.5945 14.15475028553405
SL-16 R/B               
1 24298U 96051B   25331.89924724 -.00000021  00000+0  15167-4 0  9992
2 24298  70.7608  30.6967 0018942 279.7795  80.1186 14.12394369507273
